FLOCK 4Q-36             
1 58274U 23174U   26115.78401264  .00034384  00000+0  52655-3 0  9997
2 58274  97.3847 206.4160 0005088 330.3226  29.7739 15.54267276137682
FLOCK 4Q-28             
1 58280U 23174AA  26115.80574400  .00029134  00000+0  48670-3 0  9999
2 58280  97.3880 205.4137 0003807 340.5653  19.5454 15.51886796137618
FLOCK 4Q-27             
1 58282U 23174AC  26115.80374694  .00030396  00000+0  50962-3 0  9993
2 58282  97.3813 204.9050 0003652 340.8182  19.2932 15.51777075137620
FLOCK 4Q-26             
1 58284U 23174AE  26115.78285677  .00034063  00000+0  52819-3 0  9992
2 58284  97.3870 206.4953 0004643 340.8060  19.3018 15.53927383137683
FLOCK 4Q-31             
1 58285U 23174AF  26115.49855875  .00033257  00000+0  51685-3 0  9998
2 58285  97.3906 205.8541 0004443 341.8605  18.2489 15.53870896137590
FLOCK 4Q-30             
1 58286U 23174AG  26115.80223414  .00038635  00000+0  59513-3 0  9995
2 58286  97.3923 206.3761 0003151 340.4085  19.7047 15.54091441137657
PELICAN-1               
1 58296U 23174AS  26115.81821051  .00112939  00000+0  90579-3 0  9995
2 58296  97.4004 212.9374 0003473 145.4047 214.7442 15.70665447137938
FLOCK 4Q-29             
1 58304U 23174BA  26115.80717182  .00027285  00000+0  44551-3 0  9991
2 58304  97.3926 205.8709 0003928 328.1895  31.9120 15.52539119137623
FLOCK 4Q-22             
1 58306U 23174BC  26115.80660551  .00036954  00000+0  53540-3 0  9991
2 58306  97.3812 206.2019 0002961 324.3945  35.7111 15.55781760137714
FLOCK 4Q-33             
1 58308U 23174BE  26115.76252713  .00030524  00000+0  46501-3 0  9991
2 58308  97.3847 206.0346 0004097 321.3496  38.7464 15.54439540137680
FLOCK 4Q-35             
1 58309U 23174BF  26115.78183204  .00032756  00000+0  51791-3 0  9998
2 58309  97.3873 206.1562 0004098 336.6420  23.4647 15.53398048137666
FLOCK 4Q-7              
1 58318U 23174BQ  26115.78470242  .00031006  00000+0  51043-3 0  9996
2 58318  97.3905 205.6291 0004780 324.7859  35.3077 15.52280395137615
FLOCK 4Q-2              
1 58320U 23174BS  26115.85251182  .00024740  00000+0  48511-3 0  9990
2 58320  97.3828 203.1455 0004550 332.6223  27.4786 15.47341342137506
FLOCK 4Q-9              
1 58322U 23174BU  26115.81490348  .00029439  00000+0  57901-3 0  9990
2 58322  97.3864 203.1552 0004596 333.0631  27.0380 15.47218887137484
FLOCK 4Q-4              
1 58327U 23174BZ  26115.76927563  .00020531  00000+0  41564-3 0  9995
2 58327  97.3816 202.4131 0004946   5.0388 355.0910 15.46447098137452
FLOCK 4Q-13             
1 58328U 23174CA  26115.71712451  .00024706  00000+0  45144-3 0  9995
2 58328  97.3989 205.0926 0005157 352.0740   8.0429 15.49371834137544
FLOCK 4BE-18            
1 60480U 24149N   26115.80764404  .00019395  00000+0  48517-3 0  9990
2 60480  97.3728 199.0589 0005048  95.2644 264.9178 15.40140489 94246
