[{"OBJECT_NAME":"FLOCK 4Q-36","OBJECT_ID":"2023-174U","EPOCH":"2026-04-25T18:48:58.692096","MEAN_MOTION":15.54267276,"ECCENTRICITY":0.0005088,"INCLINATION":97.3847,"RA_OF_ASC_NODE":206.416,"ARG_OF_PERICENTER":330.3226,"MEAN_ANOMALY":29.7739,"EPHEMERIS_TYPE":0,"CLASSIFICATION_TYPE":"U","NORAD_CAT_ID":58274,"ELEMENT_SET_NO":999,"REV_AT_EPOCH":13768,"BSTAR":0.00052655,"MEAN_MOTION_DOT":0.00034384,"MEAN_MOTION_DDOT":0},{"OBJECT_NAME":"FLOCK 4Q-28","OBJECT_ID":"2023-174AA","EPOCH":"2026-04-25T19:20:16.281600","MEAN_MOTION":15.51886796,"ECCENTRICITY":0.0003807,"INCLINATION":97.388,"RA_OF_ASC_NODE":205.4137,"ARG_OF_PERICENTER":340.5653,"MEAN_ANOMALY":19.5454,"EPHEMERIS_TYPE":0,"CLASSIFICATION_TYPE":"U","NORAD_CAT_ID":58280,"ELEMENT_SET_NO":999,"REV_AT_EPOCH":13761,"BSTAR":0.0004867,"MEAN_MOTION_DOT":0.00029134,"MEAN_MOTION_DDOT":0},{"OBJECT_NAME":"FLOCK 4Q-27","OBJECT_ID":"2023-174AC","EPOCH":"2026-04-25T19:17:23.735616","MEAN_MOTION":15.51777075,"ECCENTRICITY":0.0003652,"INCLINATION":97.3813,"RA_OF_ASC_NODE":204.905,"ARG_OF_PERICENTER":340.8182,"MEAN_ANOMALY":19.2932,"EPHEMERIS_TYPE":0,"CLASSIFICATION_TYPE":"U","NORAD_CAT_ID":58282,"ELEMENT_SET_NO":999,"REV_AT_EPOCH":13762,"BSTAR":0.00050962,"MEAN_MOTION_DOT":0.00030396,"MEAN_MOTION_DDOT":0},{"OBJECT_NAME":"FLOCK 4Q-26","OBJECT_ID":"2023-174AE","EPOCH":"2026-04-25T18:47:18.824928","MEAN_MOTION":15.53927383,"ECCENTRICITY":0.0004643,"INCLINATION":97.387,"RA_OF_ASC_NODE":206.4953,"ARG_OF_PERICENTER":340.806,"MEAN_ANOMALY":19.3018,"EPHEMERIS_TYPE":0,"CLASSIFICATION_TYPE":"U","NORAD_CAT_ID":58284,"ELEMENT_SET_NO":999,"REV_AT_EPOCH":13768,"BSTAR":0.00052819,"MEAN_MOTION_DOT":0.00034063,"MEAN_MOTION_DDOT":0},{"OBJECT_NAME":"FLOCK 4Q-31","OBJECT_ID":"2023-174AF","EPOCH":"2026-04-25T11:57:55.476000","MEAN_MOTION":15.53870896,"ECCENTRICITY":0.0004443,"INCLINATION":97.3906,"RA_OF_ASC_NODE":205.8541,"ARG_OF_PERICENTER":341.8605,"MEAN_ANOMALY":18.2489,"EPHEMERIS_TYPE":0,"CLASSIFICATION_TYPE":"U","NORAD_CAT_ID":58285,"ELEMENT_SET_NO":999,"REV_AT_EPOCH":13759,"BSTAR":0.00051685,"MEAN_MOTION_DOT":0.00033257,"MEAN_MOTION_DDOT":0},{"OBJECT_NAME":"FLOCK 4Q-30","OBJECT_ID":"2023-174AG","EPOCH":"2026-04-25T19:15:13.029696","MEAN_MOTION":15.54091441,"ECCENTRICITY":0.0003151,"INCLINATION":97.3923,"RA_OF_ASC_NODE":206.3761,"ARG_OF_PERICENTER":340.4085,"MEAN_ANOMALY":19.7047,"EPHEMERIS_TYPE":0,"CLASSIFICATION_TYPE":"U","NORAD_CAT_ID":58286,"ELEMENT_SET_NO":999,"REV_AT_EPOCH":13765,"BSTAR":0.00059513,"MEAN_MOTION_DOT":0.00038635,"MEAN_MOTION_DDOT":0},{"OBJECT_NAME":"PELICAN-1","OBJECT_ID":"2023-174AS","EPOCH":"2026-04-25T19:38:13.388064","MEAN_MOTION":15.70665447,"ECCENTRICITY":0.0003473,"INCLINATION":97.4004,"RA_OF_ASC_NODE":212.9374,"ARG_OF_PERICENTER":145.4047,"MEAN_ANOMALY":214.7442,"EPHEMERIS_TYPE":0,"CLASSIFICATION_TYPE":"U","NORAD_CAT_ID":58296,"ELEMENT_SET_NO":999,"REV_AT_EPOCH":13793,"BSTAR":0.00090579,"MEAN_MOTION_DOT":0.00112939,"MEAN_MOTION_DDOT":0},{"OBJECT_NAME":"FLOCK 4Q-29","OBJECT_ID":"2023-174BA","EPOCH":"2026-04-25T19:22:19.645248","MEAN_MOTION":15.52539119,"ECCENTRICITY":0.0003928,"INCLINATION":97.3926,"RA_OF_ASC_NODE":205.8709,"ARG_OF_PERICENTER":328.1895,"MEAN_ANOMALY":31.912,"EPHEMERIS_TYPE":0,"CLASSIFICATION_TYPE":"U","NORAD_CAT_ID":58304,"ELEMENT_SET_NO":999,"REV_AT_EPOCH":13762,"BSTAR":0.00044551,"MEAN_MOTION_DOT":0.00027285,"MEAN_MOTION_DDOT":0},{"OBJECT_NAME":"FLOCK 4Q-22","OBJECT_ID":"2023-174BC","EPOCH":"2026-04-25T19:21:30.716064","MEAN_MOTION":15.5578176,"ECCENTRICITY":0.0002961,"INCLINATION":97.3812,"RA_OF_ASC_NODE":206.2019,"ARG_OF_PERICENTER":324.3945,"MEAN_ANOMALY":35.7111,"EPHEMERIS_TYPE":0,"CLASSIFICATION_TYPE":"U","NORAD_CAT_ID":58306,"ELEMENT_SET_NO":999,"REV_AT_EPOCH":13771,"BSTAR":0.0005354,"MEAN_MOTION_DOT":0.00036954,"MEAN_MOTION_DDOT":0},{"OBJECT_NAME":"FLOCK 4Q-33","OBJECT_ID":"2023-174BE","EPOCH":"2026-04-25T18:18:02.344032","MEAN_MOTION":15.5443954,"ECCENTRICITY":0.0004097,"INCLINATION":97.3847,"RA_OF_ASC_NODE":206.0346,"ARG_OF_PERICENTER":321.3496,"MEAN_ANOMALY":38.7464,"EPHEMERIS_TYPE":0,"CLASSIFICATION_TYPE":"U","NORAD_CAT_ID":58308,"ELEMENT_SET_NO":999,"REV_AT_EPOCH":13768,"BSTAR":0.00046501,"MEAN_MOTION_DOT":0.00030524,"MEAN_MOTION_DDOT":0},{"OBJECT_NAME":"FLOCK 4Q-35","OBJECT_ID":"2023-174BF","EPOCH":"2026-04-25T18:45:50.288256","MEAN_MOTION":15.53398048,"ECCENTRICITY":0.0004098,"INCLINATION":97.3873,"RA_OF_ASC_NODE":206.1562,"ARG_OF_PERICENTER":336.642,"MEAN_ANOMALY":23.4647,"EPHEMERIS_TYPE":0,"CLASSIFICATION_TYPE":"U","NORAD_CAT_ID":58309,"ELEMENT_SET_NO":999,"REV_AT_EPOCH":13766,"BSTAR":0.00051791,"MEAN_MOTION_DOT":0.00032756,"MEAN_MOTION_DDOT":0},{"OBJECT_NAME":"FLOCK 4Q-7","OBJECT_ID":"2023-174BQ","EPOCH":"2026-04-25T18:49:58.289088","MEAN_MOTION":15.52280395,"ECCENTRICITY":0.000478,"INCLINATION":97.3905,"RA_OF_ASC_NODE":205.6291,"ARG_OF_PERICENTER":324.7859,"MEAN_ANOMALY":35.3077,"EPHEMERIS_TYPE":0,"CLASSIFICATION_TYPE":"U","NORAD_CAT_ID":58318,"ELEMENT_SET_NO":999,"REV_AT_EPOCH":13761,"BSTAR":0.00051043,"MEAN_MOTION_DOT":0.00031006,"MEAN_MOTION_DDOT":0},{"OBJECT_NAME":"FLOCK 4Q-2","OBJECT_ID":"2023-174BS","EPOCH":"2026-04-25T20:27:37.021248","MEAN_MOTION":15.47341342,"ECCENTRICITY":0.000455,"INCLINATION":97.3828,"RA_OF_ASC_NODE":203.1455,"ARG_OF_PERICENTER":332.6223,"MEAN_ANOMALY":27.4786,"EPHEMERIS_TYPE":0,"CLASSIFICATION_TYPE":"U","NORAD_CAT_ID":58320,"ELEMENT_SET_NO":999,"REV_AT_EPOCH":13750,"BSTAR":0.00048511,"MEAN_MOTION_DOT":0.0002474,"MEAN_MOTION_DDOT":0},{"OBJECT_NAME":"FLOCK 4Q-9","OBJECT_ID":"2023-174BU","EPOCH":"2026-04-25T19:33:27.660672","MEAN_MOTION":15.47218887,"ECCENTRICITY":0.0004596,"INCLINATION":97.3864,"RA_OF_ASC_NODE":203.1552,"ARG_OF_PERICENTER":333.0631,"MEAN_ANOMALY":27.038,"EPHEMERIS_TYPE":0,"CLASSIFICATION_TYPE":"U","NORAD_CAT_ID":58322,"ELEMENT_SET_NO":999,"REV_AT_EPOCH":13748,"BSTAR":0.00057901,"MEAN_MOTION_DOT":0.00029439,"MEAN_MOTION_DDOT":0},{"OBJECT_NAME":"FLOCK 4Q-4","OBJECT_ID":"2023-174BZ","EPOCH":"2026-04-25T18:27:45.414432","MEAN_MOTION":15.46447098,"ECCENTRICITY":0.0004946,"INCLINATION":97.3816,"RA_OF_ASC_NODE":202.4131,"ARG_OF_PERICENTER":5.0388,"MEAN_ANOMALY":355.091,"EPHEMERIS_TYPE":0,"CLASSIFICATION_TYPE":"U","NORAD_CAT_ID":58327,"ELEMENT_SET_NO":999,"REV_AT_EPOCH":13745,"BSTAR":0.00041564,"MEAN_MOTION_DOT":0.00020531,"MEAN_MOTION_DDOT":0},{"OBJECT_NAME":"FLOCK 4Q-13","OBJECT_ID":"2023-174CA","EPOCH":"2026-04-25T17:12:39.557664","MEAN_MOTION":15.49371834,"ECCENTRICITY":0.0005157,"INCLINATION":97.3989,"RA_OF_ASC_NODE":205.0926,"ARG_OF_PERICENTER":352.074,"MEAN_ANOMALY":8.0429,"EPHEMERIS_TYPE":0,"CLASSIFICATION_TYPE":"U","NORAD_CAT_ID":58328,"ELEMENT_SET_NO":999,"REV_AT_EPOCH":13754,"BSTAR":0.00045144,"MEAN_MOTION_DOT":0.00024706,"MEAN_MOTION_DDOT":0},{"OBJECT_NAME":"FLOCK 4BE-18","OBJECT_ID":"2024-149N","EPOCH":"2026-04-25T19:23:00.445056","MEAN_MOTION":15.40140489,"ECCENTRICITY":0.0005048,"INCLINATION":97.3728,"RA_OF_ASC_NODE":199.0589,"ARG_OF_PERICENTER":95.2644,"MEAN_ANOMALY":264.9178,"EPHEMERIS_TYPE":0,"CLASSIFICATION_TYPE":"U","NORAD_CAT_ID":60480,"ELEMENT_SET_NO":999,"REV_AT_EPOCH":9424,"BSTAR":0.00048517,"MEAN_MOTION_DOT":0.00019395,"MEAN_MOTION_DDOT":0}]
